[{"OBJECT_NAME":"ARIRANG-3 (KOMPSAT-3)","OBJECT_ID":"2012-025B","EPOCH":"2026-03-09T22:36:31.984704","MEAN_MOTION":14.62103113,"ECCENTRICITY":0.00067165,"INCLINATION":98.1064,"RA_OF_ASC_NODE":28.1838,"ARG_OF_PERICENTER":70.2114,"MEAN_ANOMALY":289.9811,"EPHEMERIS_TYPE":0,"CLASSIFICATION_TYPE":"U","NORAD_CAT_ID":38338,"ELEMENT_SET_NO":999,"REV_AT_EPOCH":73684,"BSTAR":0.00016351481,"MEAN_MOTION_DOT":7.75e-6,"MEAN_MOTION_DDOT":0},{"OBJECT_NAME":"OAO 3 (COPERNICUS)","OBJECT_ID":"1972-065A","EPOCH":"2026-03-09T10:48:54.999648","MEAN_MOTION":14.59997993,"ECCENTRICITY":0.00064108,"INCLINATION":35.0059,"RA_OF_ASC_NODE":298.6786,"ARG_OF_PERICENTER":165.2541,"MEAN_ANOMALY":193.4015,"EPHEMERIS_TYPE":0,"CLASSIFICATION_TYPE":"U","NORAD_CAT_ID":6153,"ELEMENT_SET_NO":999,"REV_AT_EPOCH":84615,"BSTAR":0.0001017141,"MEAN_MOTION_DOT":4.75e-6,"MEAN_MOTION_DDOT":0}]
